GLOBALSTAR M062         
1 26082U 00008B   25085.96127197 -.00000048  00000+0  35703-3 0  9991
2 26082  51.9871 337.5855 0006464 300.8361  72.1944 12.43461837486394
GLOBALSTAR M060         
1 26083U 00008C   25085.80130583 -.00000121  00000+0 -29687-3 0  9995
2 26083  52.0015 286.4089 0002709 330.0696  42.1979 12.17657649142339
GLOBALSTAR M064         
1 26084U 00008D   25085.89413084 -.00000057  00000+0  37183-3 0  9992
2 26084  52.0029  68.0969 0001321 260.8871  99.1812 11.88531990157319
GLOBALSTAR M065         
1 31571U 07020A   25085.80223765  .00000024  00000+0  71742-3 0  9998
2 31571  51.9872 117.0214 0010577 124.7772  46.1076 12.62002881823004
GLOBALSTAR M069         
1 31573U 07020C   25085.96170785 -.00000056  00000+0  30610-3 0  9995
2 31573  51.9938  83.9132 0000422  10.0143  11.4995 12.42143394823958
GLOBALSTAR M072         
1 31574U 07020D   25085.83238924 -.00000092  00000+0 -10336-3 0  9996
2 31574  52.0140 211.2099 0001813 162.2812   3.3135 11.91777086821646
GLOBALSTAR M071         
1 31576U 07020F   25085.77880015 -.00000018  00000+0  72006-3 0  9994
2 31576  52.0042 101.7457 0000601 294.0207 237.7009 12.18251485484891
